EUTELSAT 7A             
1 28187U 04008A   25231.52475322  .00000085  00000+0  00000+0 0  9992
2 28187   5.0593  75.6154 0000897 104.1774 198.0293  1.00272882 78328
EUTELSAT 174A           
1 28924U 05052A   25231.58447513 -.00000008  00000+0  00000+0 0  9994
2 28924   3.4501  80.2911 0005981  71.9118 200.3466  1.00272835 49306
EUTELSAT HOTBIRD 13B    
1 29270U 06032A   25231.82652503  .00000139  00000+0  00000+0 0  9996
2 29270   0.8783  85.6373 0004084  56.3691 157.0541  1.00273009 69837
EUTELSAT HOTBIRD 13C    
1 33459U 08065A   25231.43544818 -.00000117  00000+0  00000+0 0  9991
2 33459   2.1697  82.8072 0003703  88.3035 301.1549  1.00271194 44329
EUTELSAT 36B            
1 36101U 09065A   25231.83030927  .00000096  00000+0  00000+0 0  9999
2 36101   0.0550 341.1700 0005630 171.7609 164.8581  1.00271168 57780
EUTELSAT KA-SAT 9A      
1 37258U 10069A   25231.82175836  .00000045  00000+0  00000+0 0  9991
2 37258   0.0524 319.0361 0004396 172.6504 141.5456  1.00272291 53792
EUTELSAT 7 WEST A       
1 37816U 11051A   25231.39024584 -.00000076  00000+0  00000+0 0  9993
2 37816   0.0638   3.6630 0005246 160.6965 296.7840  1.00271312 50864
EUTELSAT 16A            
1 37836U 11057A   25231.53757337  .00000088  00000+0  00000+0 0  9998
2 37836   0.0681 338.9401 0005438 168.5682  30.1450  1.00273860  4305
